CCSDS_OMM_VERS = 2.0
CREATION_DATE  = 
ORIGINATOR     = 

OBJECT_NAME    = SL-3 R/B
OBJECT_ID      = 1982-079B
CENTER_NAME    = EARTH
REF_FRAME      = TEME
TIME_SYSTEM    = UTC
MEAN_ELEMENT_THEORY = SGP/SGP4

EPOCH          = 2025-12-13T22:17:22.654752
MEAN_MOTION    = 15.23607490
ECCENTRICITY   = .002708
INCLINATION    = 81.1468
RA_OF_ASC_NODE = 294.2593
ARG_OF_PERICENTER = 95.2866
MEAN_ANOMALY   = 265.1458

EPHEMERIS_TYPE = 0
CLASSIFICATION_TYPE = U
NORAD_CAT_ID   = 13403
ELEMENT_SET_NO = 999
REV_AT_EPOCH   = 36463
BSTAR          = .31180303E-3
MEAN_MOTION_DOT = .7567E-4
MEAN_MOTION_DDOT = 0

CCSDS_OMM_VERS = 2.0
CREATION_DATE  = 
ORIGINATOR     = 

OBJECT_NAME    = SL-14 R/B
OBJECT_ID      = 1982-092B
CENTER_NAME    = EARTH
REF_FRAME      = TEME
TIME_SYSTEM    = UTC
MEAN_ELEMENT_THEORY = SGP/SGP4

EPOCH          = 2025-12-13T18:13:07.473792
MEAN_MOTION    = 14.86557093
ECCENTRICITY   = .00192191
INCLINATION    = 82.5683
RA_OF_ASC_NODE = 221.7587
ARG_OF_PERICENTER = 223.4259
MEAN_ANOMALY   = 206.2445

EPHEMERIS_TYPE = 0
CLASSIFICATION_TYPE = U
NORAD_CAT_ID   = 13553
ELEMENT_SET_NO = 999
REV_AT_EPOCH   = 31616
BSTAR          = .74958827E-4
MEAN_MOTION_DOT = .69E-5
MEAN_MOTION_DDOT = 0

CCSDS_OMM_VERS = 2.0
CREATION_DATE  = 
ORIGINATOR     = 

OBJECT_NAME    = SL-3 R/B
OBJECT_ID      = 1983-010B
CENTER_NAME    = EARTH
REF_FRAME      = TEME
TIME_SYSTEM    = UTC
MEAN_ELEMENT_THEORY = SGP/SGP4

EPOCH          = 2025-12-13T20:58:45.275232
MEAN_MOTION    = 15.43497902
ECCENTRICITY   = .00171469
INCLINATION    = 81.1029
RA_OF_ASC_NODE = 107.2335
ARG_OF_PERICENTER = 347.1452
MEAN_ANOMALY   = 12.9351

EPHEMERIS_TYPE = 0
CLASSIFICATION_TYPE = U
NORAD_CAT_ID   = 13819
ELEMENT_SET_NO = 999
REV_AT_EPOCH   = 34469
BSTAR          = .36199653E-3
MEAN_MOTION_DOT = .16349E-3
MEAN_MOTION_DDOT = 0

CCSDS_OMM_VERS = 2.0
CREATION_DATE  = 
ORIGINATOR     = 

OBJECT_NAME    = SL-3 R/B
OBJECT_ID      = 1983-075B
CENTER_NAME    = EARTH
REF_FRAME      = TEME
TIME_SYSTEM    = UTC
MEAN_ELEMENT_THEORY = SGP/SGP4

EPOCH          = 2025-12-13T23:02:07.247904
MEAN_MOTION    = 15.36168429
ECCENTRICITY   = .00228848
INCLINATION    = 97.6107
RA_OF_ASC_NODE = 344.4844
ARG_OF_PERICENTER = 171.0573
MEAN_ANOMALY   = 189.1082

EPHEMERIS_TYPE = 0
CLASSIFICATION_TYPE = U
NORAD_CAT_ID   = 14208
ELEMENT_SET_NO = 999
REV_AT_EPOCH   = 31698
BSTAR          = .33756895E-3
MEAN_MOTION_DOT = .11917E-3
MEAN_MOTION_DDOT = 0

CCSDS_OMM_VERS = 2.0
CREATION_DATE  = 
ORIGINATOR     = 

OBJECT_NAME    = COSMOS 1536
OBJECT_ID      = 1984-013A
CENTER_NAME    = EARTH
REF_FRAME      = TEME
TIME_SYSTEM    = UTC
MEAN_ELEMENT_THEORY = SGP/SGP4

EPOCH          = 2025-12-13T23:44:39.029568
MEAN_MOTION    = 15.22536276
ECCENTRICITY   = .00136131
INCLINATION    = 82.5454
RA_OF_ASC_NODE = 192.9251
ARG_OF_PERICENTER = 220.7300
MEAN_ANOMALY   = 139.2919

EPHEMERIS_TYPE = 0
CLASSIFICATION_TYPE = U
NORAD_CAT_ID   = 14699
ELEMENT_SET_NO = 999
REV_AT_EPOCH   = 25957
BSTAR          = .29983542E-3
MEAN_MOTION_DOT = .7002E-4
MEAN_MOTION_DDOT = 0

CCSDS_OMM_VERS = 2.0
CREATION_DATE  = 
ORIGINATOR     = 

OBJECT_NAME    = SL-14 R/B
OBJECT_ID      = 1984-027B
CENTER_NAME    = EARTH
REF_FRAME      = TEME
TIME_SYSTEM    = UTC
MEAN_ELEMENT_THEORY = SGP/SGP4

EPOCH          = 2025-12-13T23:16:22.666656
MEAN_MOTION    = 14.85876065
ECCENTRICITY   = .00163885
INCLINATION    = 82.5413
RA_OF_ASC_NODE = 325.4025
ARG_OF_PERICENTER = 256.3360
MEAN_ANOMALY   = 103.6032

EPHEMERIS_TYPE = 0
CLASSIFICATION_TYPE = U
NORAD_CAT_ID   = 14820
ELEMENT_SET_NO = 999
REV_AT_EPOCH   = 23490
BSTAR          = .82552599E-4
MEAN_MOTION_DOT = .744E-5
MEAN_MOTION_DDOT = 0

CCSDS_OMM_VERS = 2.0
CREATION_DATE  = 
ORIGINATOR     = 

OBJECT_NAME    = SL-8 R/B
OBJECT_ID      = 1985-006B
CENTER_NAME    = EARTH
REF_FRAME      = TEME
TIME_SYSTEM    = UTC
MEAN_ELEMENT_THEORY = SGP/SGP4

EPOCH          = 2025-12-13T22:56:20.968800
MEAN_MOTION    = 14.37722005
ECCENTRICITY   = .00187505
INCLINATION    = 74.0467
RA_OF_ASC_NODE = 58.8978
ARG_OF_PERICENTER = 350.8323
MEAN_ANOMALY   = 181.7471

EPHEMERIS_TYPE = 0
CLASSIFICATION_TYPE = U
NORAD_CAT_ID   = 15483
ELEMENT_SET_NO = 999
REV_AT_EPOCH   = 14170
BSTAR          = .11502071E-3
MEAN_MOTION_DOT = .32E-5
MEAN_MOTION_DDOT = 0

CCSDS_OMM_VERS = 2.0
CREATION_DATE  = 
ORIGINATOR     = 

OBJECT_NAME    = SL-12 R/B(2)
OBJECT_ID      = 1985-042D
CENTER_NAME    = EARTH
REF_FRAME      = TEME
TIME_SYSTEM    = UTC
MEAN_ELEMENT_THEORY = SGP/SGP4

EPOCH          = 2025-12-14T00:22:24.256128
MEAN_MOTION    = 14.21952534
ECCENTRICITY   = .00375875
INCLINATION    = 71.1085
RA_OF_ASC_NODE = 268.7247
ARG_OF_PERICENTER = 259.6271
MEAN_ANOMALY   = 178.8191

EPHEMERIS_TYPE = 0
CLASSIFICATION_TYPE = U
NORAD_CAT_ID   = 15772
ELEMENT_SET_NO = 999
REV_AT_EPOCH   = 10221
BSTAR          = .54602709E-4
MEAN_MOTION_DOT = .74E-6
MEAN_MOTION_DDOT = 0

CCSDS_OMM_VERS = 2.0
CREATION_DATE  = 
ORIGINATOR     = 

OBJECT_NAME    = SL-14 R/B
OBJECT_ID      = 1985-069B
CENTER_NAME    = EARTH
REF_FRAME      = TEME
TIME_SYSTEM    = UTC
MEAN_ELEMENT_THEORY = SGP/SGP4

EPOCH          = 2025-12-13T20:18:09.955584
MEAN_MOTION    = 14.86326155
ECCENTRICITY   = .00201984
INCLINATION    = 82.5268
RA_OF_ASC_NODE = 105.6630
ARG_OF_PERICENTER = 115.0682
MEAN_ANOMALY   = 245.2634

EPHEMERIS_TYPE = 0
CLASSIFICATION_TYPE = U
NORAD_CAT_ID   = 15945
ELEMENT_SET_NO = 999
REV_AT_EPOCH   = 16008
BSTAR          = .87928263E-4
MEAN_MOTION_DOT = .802E-5
MEAN_MOTION_DDOT = 0

CCSDS_OMM_VERS = 2.0
CREATION_DATE  = 
ORIGINATOR     = 

OBJECT_NAME    = SL-16 R/B
OBJECT_ID      = 1985-097B
CENTER_NAME    = EARTH
REF_FRAME      = TEME
TIME_SYSTEM    = UTC
MEAN_ELEMENT_THEORY = SGP/SGP4

EPOCH          = 2025-12-13T23:31:13.525824
MEAN_MOTION    = 14.16584899
ECCENTRICITY   = .00067432
INCLINATION    = 71.0034
RA_OF_ASC_NODE = 320.9917
ARG_OF_PERICENTER = 9.0340
MEAN_ANOMALY   = 52.4940

EPHEMERIS_TYPE = 0
CLASSIFICATION_TYPE = U
NORAD_CAT_ID   = 16182
ELEMENT_SET_NO = 999
REV_AT_EPOCH   = 7509
BSTAR          = .18978317E-3
MEAN_MOTION_DOT = .331E-5
MEAN_MOTION_DDOT = 0

CCSDS_OMM_VERS = 2.0
CREATION_DATE  = 
ORIGINATOR     = 

OBJECT_NAME    = SL-14 R/B
OBJECT_ID      = 1986-006B
CENTER_NAME    = EARTH
REF_FRAME      = TEME
TIME_SYSTEM    = UTC
MEAN_ELEMENT_THEORY = SGP/SGP4

EPOCH          = 2025-12-13T23:29:24.875232
MEAN_MOTION    = 14.86673857
ECCENTRICITY   = .00762624
INCLINATION    = 82.5264
RA_OF_ASC_NODE = 340.3851
ARG_OF_PERICENTER = 195.6775
MEAN_ANOMALY   = 164.2081

EPHEMERIS_TYPE = 0
CLASSIFICATION_TYPE = U
NORAD_CAT_ID   = 16496
ELEMENT_SET_NO = 999
REV_AT_EPOCH   = 13647
BSTAR          = .92105258E-4
MEAN_MOTION_DOT = .889E-5
MEAN_MOTION_DDOT = 0

CCSDS_OMM_VERS = 2.0
CREATION_DATE  = 
ORIGINATOR     = 

OBJECT_NAME    = COSMOS 1743
OBJECT_ID      = 1986-034A
CENTER_NAME    = EARTH
REF_FRAME      = TEME
TIME_SYSTEM    = UTC
MEAN_ELEMENT_THEORY = SGP/SGP4

EPOCH          = 2025-12-13T22:39:02.684448
MEAN_MOTION    = 15.52232928
ECCENTRICITY   = .00047033
INCLINATION    = 82.5344
RA_OF_ASC_NODE = 163.3412
ARG_OF_PERICENTER = 248.4518
MEAN_ANOMALY   = 111.6233

EPHEMERIS_TYPE = 0
CLASSIFICATION_TYPE = U
NORAD_CAT_ID   = 16719
ELEMENT_SET_NO = 999
REV_AT_EPOCH   = 16692
BSTAR          = .52988722E-3
MEAN_MOTION_DOT = .3226E-3
MEAN_MOTION_DDOT = 0

