SL-3 R/B                
1 13403U 82079B   25347.92873443  .00007567  00000+0  31180-3 0  9998
2 13403  81.1468 294.2593 0027080  95.2866 265.1458 15.23607490364638
SL-14 R/B               
1 13553U 82092B   25347.75911428  .00000690  00000+0  74959-4 0  9998
2 13553  82.5683 221.7587 0019219 223.4259 206.2445 14.86557093316160
SL-3 R/B                
1 13819U 83010B   25347.87413513  .00016349  00000+0  36200-3 0  9993
2 13819  81.1029 107.2335 0017146 347.1452  12.9351 15.43497902344692
SL-3 R/B                
1 14208U 83075B   25347.95980611  .00011917  00000+0  33757-3 0  9994
2 14208  97.6107 344.4844 0022884 171.0573 189.1082 15.36168429316987
COSMOS 1536             
1 14699U 84013A   25347.98934062  .00007002  00000+0  29984-3 0  9990
2 14699  82.5454 192.9251 0013613 220.7300 139.2919 15.22536276259577
SL-14 R/B               
1 14820U 84027B   25347.96970679  .00000744  00000+0  82553-4 0  9991
2 14820  82.5413 325.4025 0016388 256.3360 103.6032 14.85876065234905
SL-8 R/B                
1 15483U 85006B   25347.95579825  .00000320  00000+0  11502-3 0  9997
2 15483  74.0467  58.8978 0018750 350.8323 181.7471 14.37722005141704
SL-12 R/B(2)            
1 15772U 85042D   25348.01555852  .00000074  00000+0  54603-4 0  9996
2 15772  71.1085 268.7247 0037587 259.6271 178.8191 14.21952534102211
SL-14 R/B               
1 15945U 85069B   25347.84594856  .00000802  00000+0  87928-4 0  9999
2 15945  82.5268 105.6630 0020198 115.0682 245.2634 14.86326155160083
SL-16 R/B               
1 16182U 85097B   25347.98001766  .00000331  00000+0  18978-3 0  9997
2 16182  71.0034 320.9917 0006743   9.0340  52.4940 14.16584899 75092
SL-14 R/B               
1 16496U 86006B   25347.97876013  .00000889  00000+0  92105-4 0  9993
2 16496  82.5264 340.3851 0076262 195.6775 164.2081 14.86673857136470
COSMOS 1743             
1 16719U 86034A   25347.94378107  .00032260  00000+0  52989-3 0  9993
2 16719  82.5344 163.3412 0004703 248.4518 111.6233 15.52232928166928
